STARLINK-37272          
1 68726U 26081AD  26113.57512975 -.00697090  00000+0 -27645-2 0  9998
2 68726  53.1598 195.8004 0000854 332.0080  28.0900 15.87606832  1479
