{
  "norad_id": 68726,
  "name": "STARLINK-37272",
  "history": [
    {
      "epoch": "2026-04-23T13:48:11.210400Z",
      "apogee_km": 309.5660596863472,
      "perigee_km": 308.4230951571353,
      "latitude_deg": 4.03217633737001e-05,
      "longitude_deg": 137.13332485244868,
      "height_km": 309.4123710767592,
      "semi_major_axis_km": 6687.131577421741,
      "eccentricity": 8.546e-05,
      "inclination_deg": 53.1598,
      "raan_deg": 195.8004,
      "arg_perigee_deg": 332.008,
      "mean_anomaly_deg": 28.09,
      "mean_motion_rev_day": 15.87606832
    }
  ]
}